[{"OBJECT_NAME":"STARLINK-36543","OBJECT_ID":"2026-012Y","EPOCH":"2026-03-09T23:06:20.124288","MEAN_MOTION":15.27583112,"ECCENTRICITY":7.498e-5,"INCLINATION":42.9985,"RA_OF_ASC_NODE":312.8495,"ARG_OF_PERICENTER":251.8821,"MEAN_ANOMALY":108.1949,"EPHEMERIS_TYPE":0,"CLASSIFICATION_TYPE":"U","NORAD_CAT_ID":67515,"ELEMENT_SET_NO":999,"REV_AT_EPOCH":780,"BSTAR":0.00090729604,"MEAN_MOTION_DOT":0.00024791,"MEAN_MOTION_DDOT":0},{"OBJECT_NAME":"SL-3 R\/B","OBJECT_ID":"1983-003B","EPOCH":"2026-03-09T21:31:00.897888","MEAN_MOTION":15.34640469,"ECCENTRICITY":0.00285789,"INCLINATION":81.155,"RA_OF_ASC_NODE":261.9078,"ARG_OF_PERICENTER":155.4571,"MEAN_ANOMALY":204.8036,"EPHEMERIS_TYPE":0,"CLASSIFICATION_TYPE":"U","NORAD_CAT_ID":13771,"ELEMENT_SET_NO":999,"REV_AT_EPOCH":35642,"BSTAR":0.00033440366,"MEAN_MOTION_DOT":0.00011405,"MEAN_MOTION_DDOT":0}]
